[{"OBJECT_NAME":"UTMN 2 (RS27S)","OBJECT_ID":"2023-091AP","EPOCH":"2026-03-09T23:09:07.917408","MEAN_MOTION":15.29495965,"ECCENTRICITY":0.00097379,"INCLINATION":97.5194,"RA_OF_ASC_NODE":134.949,"ARG_OF_PERICENTER":76.0788,"MEAN_ANOMALY":284.1534,"EPHEMERIS_TYPE":0,"CLASSIFICATION_TYPE":"U","NORAD_CAT_ID":57203,"ELEMENT_SET_NO":999,"REV_AT_EPOCH":14936,"BSTAR":0.00056135701,"MEAN_MOTION_DOT":0.00016013,"MEAN_MOTION_DDOT":0},{"OBJECT_NAME":"STARLINK-33921","OBJECT_ID":"2025-225AA","EPOCH":"2026-03-09T13:56:27.803904","MEAN_MOTION":15.30175328,"ECCENTRICITY":0.0001065,"INCLINATION":53.1605,"RA_OF_ASC_NODE":166.0259,"ARG_OF_PERICENTER":74.4742,"MEAN_ANOMALY":285.6376,"EPHEMERIS_TYPE":0,"CLASSIFICATION_TYPE":"U","NORAD_CAT_ID":65934,"ELEMENT_SET_NO":999,"REV_AT_EPOCH":2350,"BSTAR":0.00088752,"MEAN_MOTION_DOT":0.00025998,"MEAN_MOTION_DDOT":0}]
